[{"OBJECT_NAME":"STARLINK-32405","OBJECT_ID":"2024-191R","EPOCH":"2026-03-09T05:49:13.932768","MEAN_MOTION":15.27567531,"ECCENTRICITY":0.00033986,"INCLINATION":43.0024,"RA_OF_ASC_NODE":160.8737,"ARG_OF_PERICENTER":286.9855,"MEAN_ANOMALY":73.0624,"EPHEMERIS_TYPE":0,"CLASSIFICATION_TYPE":"U","NORAD_CAT_ID":61636,"ELEMENT_SET_NO":999,"REV_AT_EPOCH":7742,"BSTAR":-2.9301245e-5,"MEAN_MOTION_DOT":-1.069e-5,"MEAN_MOTION_DDOT":0},{"OBJECT_NAME":"FLOCK 4G-14","OBJECT_ID":"2025-009BL","EPOCH":"2026-03-09T18:12:31.432032","MEAN_MOTION":15.27197201,"ECCENTRICITY":0.00030064,"INCLINATION":97.4064,"RA_OF_ASC_NODE":151.1836,"ARG_OF_PERICENTER":318.3639,"MEAN_ANOMALY":41.7371,"EPHEMERIS_TYPE":0,"CLASSIFICATION_TYPE":"U","NORAD_CAT_ID":62667,"ELEMENT_SET_NO":999,"REV_AT_EPOCH":6371,"BSTAR":0.00042675627,"MEAN_MOTION_DOT":0.0001131,"MEAN_MOTION_DDOT":0}]
